{
  "type" : "FeatureCollection",
  "features" : [{"type":"Feature","id":0,"geometry":{"type":"Point","coordinates":[55.497239428000057,25.41833306500007]},"properties":{"FID":0,"name_ar":"مركز عجمان لرعاية وتأهيل أصحاب الهمم","name_en":"Ajman Rehabilitation Center For Disabled","Cat_ar":"مراكز أصحاب الهمم وكبار المواطنين","Cat_en":"People of Determination & Seniors Centers","x":25.418333069999999,"y":55.49723943}},{"type":"Feature","id":1,"geometry":{"type":"Point","coordinates":[55.530016817000046,25.382182469000043]},"properties":{"FID":1,"name_ar":"نادي عجمان لذوي الاحتياجات الخاصة","name_en":"Ajman Club for Disabled","Cat_ar":"مراكز أصحاب الهمم وكبار المواطنين","Cat_en":"People of Determination & Seniors Centers","x":25.38218247,"y":55.53001682}},{"type":"Feature","id":2,"geometry":{"type":"Point","coordinates":[55.46935502000008,25.398388965000038]},"properties":{"FID":2,"name_ar":"مركز سيدرا للتربية الخاصة و التأهيل","name_en":"Cedra Center For Special Education And Rehabilitation","Cat_ar":"مراكز أصحاب الهمم وكبار المواطنين","Cat_en":"People of Determination & Seniors Centers","x":25.398388969999999,"y":55.469355020000002}},{"type":"Feature","id":3,"geometry":{"type":"Point","coordinates":[55.514622949000056,25.418327034000072]},"properties":{"FID":3,"name_ar":"مركز المسار لتأهيل اصحاب الهمم","name_en":"Al Masar Center for Rehabilitation","Cat_ar":"مراكز أصحاب الهمم وكبار المواطنين","Cat_en":"People of Determination & Seniors Centers","x":25.41832703,"y":55.514622950000003}},{"type":"Feature","id":4,"geometry":{"type":"Point","coordinates":[55.52713379000005,25.38471664900004]},"properties":{"FID":4,"name_ar":"مركز إيكا\u0651د للتأهيل والخدمات العلاجية","name_en":"Eicadd Rehabilitation Center","Cat_ar":"مراكز أصحاب الهمم وكبار المواطنين","Cat_en":"People of Determination & Seniors Centers","x":25.384716650000001,"y":55.527133790000001}},{"type":"Feature","id":5,"geometry":{"type":"Point","coordinates":[55.466072938000082,25.390478439000049]},"properties":{"FID":5,"name_ar":"مركز هوب لإعادة التأهيل","name_en":"HOPE Rehabilitation Center","Cat_ar":"مراكز أصحاب الهمم وكبار المواطنين","Cat_en":"People of Determination & Seniors Centers","x":25.390478439999999,"y":55.466072939999997}},{"type":"Feature","id":6,"geometry":{"type":"Point","coordinates":[55.500888576000079,25.40730475600003]},"properties":{"FID":6,"name_ar":"مركز الأوج لذوي طيف التوحد","name_en":"Al Awj Autism Center","Cat_ar":"مراكز أصحاب الهمم وكبار المواطنين","Cat_en":"People of Determination & Seniors Centers","x":25.407304759999999,"y":55.500888580000002}},{"type":"Feature","id":7,"geometry":{"type":"Point","coordinates":[55.466404732000058,25.40091386000006]},"properties":{"FID":7,"name_ar":"وزارة تنمية المجتمع، مركز سعادة كبار المواطنين","name_en":"Ministry of Community Empowerment","Cat_ar":"مراكز أصحاب الهمم وكبار المواطنين","Cat_en":"People of Determination & Seniors Centers","x":25.400913859999999,"y":55.466404730000001}}]
}