{
  "type" : "FeatureCollection",
  "features" : [{"type":"Feature","id":0,"geometry":{"type":"Point","coordinates":[55.52604800000006,25.404048000000046]},"properties":{"FID":0,"name_ar":"مركز الحميدية الصحي","name_en":"Al Hamidiya  Health Center","Cat_ar":"مستشفيات/عيادات","Cat_en":"Hospitals/Clinics","x":25.404048,"y":55.526048000000003}},{"type":"Feature","id":1,"geometry":{"type":"Point","coordinates":[55.471376000000078,25.41357400000004]},"properties":{"FID":1,"name_ar":"مركز مشيرف الصحي","name_en":"Musheiraf Medical Centre","Cat_ar":"مستشفيات/عيادات","Cat_en":"Hospitals/Clinics","x":25.413574000000001,"y":55.471375999999999}},{"type":"Feature","id":2,"geometry":{"type":"Point","coordinates":[55.481662000000028,25.392325000000028]},"properties":{"FID":2,"name_ar":"مستشفى عجمان التخصصي","name_en":"Ajman Specialist Hospital","Cat_ar":"مستشفيات/عيادات","Cat_en":"Hospitals/Clinics","x":25.392325,"y":55.481662}},{"type":"Feature","id":3,"geometry":{"type":"Point","coordinates":[55.462334000000055,25.382187000000044]},"properties":{"FID":3,"name_ar":"مستشفى ثومبي","name_en":"Thumbay Hospital","Cat_ar":"مستشفيات/عيادات","Cat_en":"Hospitals/Clinics","x":25.382186999999998,"y":55.462333999999998}},{"type":"Feature","id":4,"geometry":{"type":"Point","coordinates":[55.497231000000056,25.414984000000061]},"properties":{"FID":4,"name_ar":"مستشفى الشيخ خليفة بن زايد","name_en":"Khalifa Bin Zayed Hospital","Cat_ar":"مستشفيات/عيادات","Cat_en":"Hospitals/Clinics","x":25.414984,"y":55.497230999999999}},{"type":"Feature","id":5,"geometry":{"type":"Point","coordinates":[55.441225000000031,25.403995000000066]},"properties":{"FID":5,"name_ar":"مستشفى أمينة","name_en":"Amina Hospital","Cat_ar":"مستشفيات/عيادات","Cat_en":"Hospitals/Clinics","x":25.403994999999998,"y":55.441225000000003}},{"type":"Feature","id":6,"geometry":{"type":"Point","coordinates":[55.50980700000008,25.367742000000078]},"properties":{"FID":6,"name_ar":"مستشفى السعودي الالماني","name_en":"suadi german hospital","Cat_ar":"مستشفيات/عيادات","Cat_en":"Hospitals/Clinics","x":25.367742,"y":55.509807000000002}},{"type":"Feature","id":7,"geometry":{"type":"Point","coordinates":[55.500107000000071,25.41852700000004]},"properties":{"FID":7,"name_ar":"مستشفى ثومبي الجرف","name_en":"Thumby hospital Jurf","Cat_ar":"مستشفيات/عيادات","Cat_en":"Hospitals/Clinics","x":25.418527000000001,"y":55.500107}},{"type":"Feature","id":8,"geometry":{"type":"Point","coordinates":[55.494997000000069,25.416719000000057]},"properties":{"FID":8,"name_ar":"مركز راشد لعلاج السكري والأ","name_en":"Rashid Centre for Diabetes and Research","Cat_ar":"مستشفيات/عيادات","Cat_en":"Hospitals/Clinics","x":25.416719000000001,"y":55.494996999999998}},{"type":"Feature","id":9,"geometry":{"type":"Point","coordinates":[55.495911000000035,25.417422000000045]},"properties":{"FID":9,"name_ar":"مشفى الشيخ خليفة بن زايد لل","name_en":"Khalifa Bin Zayed Hospital Woman & Children","Cat_ar":"مستشفيات/عيادات","Cat_en":"Hospitals/Clinics","x":25.417421999999998,"y":55.495911}},{"type":"Feature","id":10,"geometry":{"type":"Point","coordinates":[55.525611000000026,25.402404000000047]},"properties":{"FID":10,"name_ar":"مركز عجمان التخصصي لطب الأس","name_en":"Ajmam Specialized Dental Centre","Cat_ar":"مستشفيات/عيادات","Cat_en":"Hospitals/Clinics","x":25.402404000000001,"y":55.525610999999998}},{"type":"Feature","id":11,"geometry":{"type":"Point","coordinates":[55.525875000000042,25.403196000000037]},"properties":{"FID":11,"name_ar":"مجمع عجمان الطب الوقائي","name_en":"Ajman Preventive Medicine Center","Cat_ar":"مستشفيات/عيادات","Cat_en":"Hospitals/Clinics","x":25.403196000000001,"y":55.525874999999999}},{"type":"Feature","id":12,"geometry":{"type":"Point","coordinates":[55.443818632605179,25.400127691456063]},"properties":{"FID":12,"name_ar":"مركز المدينة الصحي","name_en":"Al Madina Health Center","Cat_ar":"مستشفيات/عيادات","Cat_en":"Hospitals/Clinics","x":55.443818630000003,"y":25.400127690000001}}]
}