{
  "type" : "FeatureCollection",
  "features" : [{"type":"Feature","id":0,"geometry":{"type":"Point","coordinates":[55.554165000000069,25.404827000000068]},"properties":{"FID":0,"name_ar":"مجلس الوطن","name_en":"Majlis Al Watan","Cat_ar":"مجالس الأحياء","Cat_en":"Neighborhood Councils","x":25.404827000000001,"y":55.554164999999998}},{"type":"Feature","id":1,"geometry":{"type":"Point","coordinates":[55.513166000000069,25.399373000000026]},"properties":{"FID":1,"name_ar":"مجلس العامر","name_en":"Majlis Al Amer","Cat_ar":"مجالس الأحياء","Cat_en":"Neighborhood Councils","x":25.399373000000001,"y":55.513165999999998}},{"type":"Feature","id":2,"geometry":{"type":"Point","coordinates":[55.489681000000076,25.416762000000062]},"properties":{"FID":2,"name_ar":"مجلس الشيخ زايد","name_en":"Majlis Al Sheikh Zayed","Cat_ar":"مجالس الأحياء","Cat_en":"Neighborhood Councils","x":25.416761999999999,"y":55.489680999999997}},{"type":"Feature","id":3,"geometry":{"type":"Point","coordinates":[55.472964000000047,25.408674000000076]},"properties":{"FID":3,"name_ar":"مجلس عبدالله امين","name_en":"Majlis Abdullah Amin","Cat_ar":"مجالس الأحياء","Cat_en":"Neighborhood Councils","x":25.408674000000001,"y":55.472963999999997}},{"type":"Feature","id":4,"geometry":{"type":"Point","coordinates":[55.541827000000069,25.416694000000064]},"properties":{"FID":4,"name_ar":"مجلس الوصل","name_en":"Majlis Al Wasl","Cat_ar":"مجالس الأحياء","Cat_en":"Neighborhood Councils","x":25.416694,"y":55.541826999999998}},{"type":"Feature","id":5,"geometry":{"type":"Point","coordinates":[55.554869000000053,25.395078000000069]},"properties":{"FID":5,"name_ar":"مجلس الرقايب","name_en":"Majlis Al Raqaib","Cat_ar":"مجالس الأحياء","Cat_en":"Neighborhood Councils","x":25.395078000000002,"y":55.554868999999997}},{"type":"Feature","id":6,"geometry":{"type":"Point","coordinates":[55.610790000000065,25.400539000000038]},"properties":{"FID":6,"name_ar":"مجلس الحليو 1","name_en":"Majlis Al Haliou 1","Cat_ar":"مجالس الأحياء","Cat_en":"Neighborhood Councils","x":25.400538999999998,"y":55.610790000000001}},{"type":"Feature","id":7,"geometry":{"type":"Point","coordinates":[55.523698000000081,25.405263000000048]},"properties":{"FID":7,"name_ar":"مجلس أحياء","name_en":"Majlis Ahyaa","Cat_ar":"مجالس الأحياء","Cat_en":"Neighborhood Councils","x":25.405263000000001,"y":55.523698000000003}},{"type":"Feature","id":8,"geometry":{"type":"Point","coordinates":[55.470377000000042,25.413717000000076]},"properties":{"FID":8,"name_ar":"مجلس الصفيا","name_en":"Majlis Al Safia","Cat_ar":"مجالس الأحياء","Cat_en":"Neighborhood Councils","x":25.413716999999998,"y":55.470376999999999}}]
}