{
  "type" : "FeatureCollection",
  "features" : [{"type":"Feature","id":0,"geometry":{"type":"Point","coordinates":[55.431387400000062,25.403792600000031]},"properties":{"FID":0,"OID_":0,"name_ar":"مركز عالم الطفل","name_en":"Child World Center","Cat_ar":"حضانة","Cat_en":"Nursery","x":25.403792599999999,"y":55.431387399999998}},{"type":"Feature","id":1,"geometry":{"type":"Point","coordinates":[55.427486400000078,25.39696310000005]},"properties":{"FID":1,"OID_":0,"name_ar":"سيتي كوليدج الدولية","name_en":"City College International","Cat_ar":"حضانة","Cat_en":"Nursery","x":25.396963100000001,"y":55.427486399999999}},{"type":"Feature","id":2,"geometry":{"type":"Point","coordinates":[55.433890000000076,25.39651420000007]},"properties":{"FID":2,"OID_":0,"name_ar":"الندى للتدريب في العلوم السلوكية والاجتماعية","name_en":"Al Nada for Training in Behavioral & Social Science","Cat_ar":"حضانة","Cat_en":"Nursery","x":25.396514199999999,"y":55.433889999999998}},{"type":"Feature","id":3,"geometry":{"type":"Point","coordinates":[55.44693140000004,25.395543300000043]},"properties":{"FID":3,"OID_":0,"name_ar":"مركز أبطال المستقبل","name_en":"Abtal Al Mostqbal Centre","Cat_ar":"حضانة","Cat_en":"Nursery","x":25.3955433,"y":55.446931399999997}},{"type":"Feature","id":4,"geometry":{"type":"Point","coordinates":[55.44229080000008,25.402797400000054]},"properties":{"FID":4,"OID_":0,"name_ar":"حضانة بلو بيلز","name_en":"Bluebells Nursery","Cat_ar":"حضانة","Cat_en":"Nursery","x":25.402797400000001,"y":55.442290800000002}},{"type":"Feature","id":5,"geometry":{"type":"Point","coordinates":[55.509643900000071,25.387330500000076]},"properties":{"FID":5,"OID_":0,"name_ar":"حضانة كيدي كوف","name_en":"Kiddie Cove Nursery","Cat_ar":"حضانة","Cat_en":"Nursery","x":25.387330500000001,"y":55.5096439}},{"type":"Feature","id":6,"geometry":{"type":"Point","coordinates":[55.46427390000008,25.404413200000079]},"properties":{"FID":6,"OID_":0,"name_ar":"حضانة الدانة فرع عجمان","name_en":"Al Dana Nursery Ajman","Cat_ar":"حضانة","Cat_en":"Nursery","x":25.4044132,"y":55.464273900000002}},{"type":"Feature","id":7,"geometry":{"type":"Point","coordinates":[55.49566370000008,25.406012600000054]},"properties":{"FID":7,"OID_":0,"name_ar":"حضانة حديقة إلينا عجمان","name_en":"Elina Garden Nursery Ajman","Cat_ar":"حضانة","Cat_en":"Nursery","x":25.4060126,"y":55.495663700000001}},{"type":"Feature","id":8,"geometry":{"type":"Point","coordinates":[55.51568750000007,25.381437500000061]},"properties":{"FID":8,"OID_":0,"name_ar":"حضانة إيرلي سكولارز عجمان","name_en":"ES Nursery (Early Scholars)","Cat_ar":"حضانة","Cat_en":"Nursery","x":25.381437500000001,"y":55.515687499999999}},{"type":"Feature","id":9,"geometry":{"type":"Point","coordinates":[55.493780600000036,25.36772250000007]},"properties":{"FID":9,"OID_":0,"name_ar":"حضانة عجائب الصغار فرع عجمان","name_en":"Little Wonders Nursery Ajman Branch","Cat_ar":"حضانة","Cat_en":"Nursery","x":25.367722499999999,"y":55.493780600000001}},{"type":"Feature","id":10,"geometry":{"type":"Point","coordinates":[55.489691600000072,25.367738000000031]},"properties":{"FID":10,"OID_":0,"name_ar":"حضانة لين","name_en":"Leen Nursery","Cat_ar":"حضانة","Cat_en":"Nursery","x":25.367737999999999,"y":55.4896916}},{"type":"Feature","id":11,"geometry":{"type":"Point","coordinates":[55.571979500000054,25.391296000000068]},"properties":{"FID":11,"OID_":0,"name_ar":"حضانة القلعة السحرية","name_en":"Magic Castle Nursery","Cat_ar":"حضانة","Cat_en":"Nursery","x":25.391296000000001,"y":55.571979499999998}},{"type":"Feature","id":12,"geometry":{"type":"Point","coordinates":[55.476699800000063,25.413339600000029]},"properties":{"FID":12,"OID_":0,"name_ar":"حضانة كيدز آر كيدز","name_en":"Kids are kids Nursery","Cat_ar":"حضانة","Cat_en":"Nursery","x":25.4133396,"y":55.476699799999999}},{"type":"Feature","id":13,"geometry":{"type":"Point","coordinates":[55.45008050000007,25.394542700000045]},"properties":{"FID":13,"OID_":0,"name_ar":"حضانة جست لايك هوم","name_en":"Just Like Home Nursery","Cat_ar":"حضانة","Cat_en":"Nursery","x":25.394542699999999,"y":55.450080499999999}},{"type":"Feature","id":14,"geometry":{"type":"Point","coordinates":[55.440008000000034,25.387729300000046]},"properties":{"FID":14,"OID_":0,"name_ar":"مركز الطيب للأطفال","name_en":"ALTAYEB CENTRE FOR KIDS","Cat_ar":"حضانة","Cat_en":"Nursery","x":25.3877293,"y":55.440007999999999}},{"type":"Feature","id":15,"geometry":{"type":"Point","coordinates":[55.448292900000069,25.394125200000076]},"properties":{"FID":15,"OID_":0,"name_ar":"الكمال لتكنولوجيا التعليم","name_en":"Al Kamal Education Technology","Cat_ar":"حضانة","Cat_en":"Nursery","x":25.394125200000001,"y":55.448292899999998}},{"type":"Feature","id":16,"geometry":{"type":"Point","coordinates":[55.448361100000056,25.384671800000035]},"properties":{"FID":16,"OID_":0,"name_ar":"حضانة السعادة للأطفال (فرع عجمان)","name_en":"Al Saada For Kids Nursery (Ajman Branch)","Cat_ar":"حضانة","Cat_en":"Nursery","x":25.3846718,"y":55.4483611}},{"type":"Feature","id":17,"geometry":{"type":"Point","coordinates":[55.505596906000051,25.422247291000076]},"properties":{"FID":17,"OID_":0,"name_ar":"روضة البهجة","name_en":"Al Bahja Nursery","Cat_ar":"حضانة","Cat_en":"Nursery","x":25.422247291000001,"y":55.505596906000001}},{"type":"Feature","id":18,"geometry":{"type":"Point","coordinates":[55.462757599000042,25.385823846000051]},"properties":{"FID":18,"OID_":0,"name_ar":"حضانة الحياة","name_en":"Al Hayat Nursery","Cat_ar":"حضانة","Cat_en":"Nursery","x":25.385823846000001,"y":55.462757599}},{"type":"Feature","id":19,"geometry":{"type":"Point","coordinates":[55.520480380000038,25.402105443000039]},"properties":{"FID":19,"OID_":0,"name_ar":"روضة ام عمار","name_en":"Umm Ammar KG","Cat_ar":"حضانة","Cat_en":"Nursery","x":25.402105443,"y":55.520480380000002}},{"type":"Feature","id":20,"geometry":{"type":"Point","coordinates":[55.468442896000056,25.413175109000065]},"properties":{"FID":20,"OID_":0,"name_ar":"روضة الأماني","name_en":"Al Amani Nursery","Cat_ar":"حضانة","Cat_en":"Nursery","x":25.413175109000001,"y":55.468442895999999}},{"type":"Feature","id":21,"geometry":{"type":"Point","coordinates":[55.432282691000069,25.400538233000077]},"properties":{"FID":21,"OID_":0,"name_ar":"حضانة ويندر كيدز","name_en":"Wander KidsNursery Ajman","Cat_ar":"حضانة","Cat_en":"Nursery","x":25.400538232999999,"y":55.432282690999997}},{"type":"Feature","id":22,"geometry":{"type":"Point","coordinates":[55.550292945335478,25.402681836883289]},"properties":{"FID":22,"OID_":0,"name_ar":"حضانة كيدز تاون","name_en":"Kids Town Nursery","Cat_ar":"حضانة","Cat_en":"Nursery","x":25.40268184,"y":55.550292949999999}}]
}