{
  "type" : "FeatureCollection",
  "features" : [{"type":"Feature","id":0,"geometry":{"type":"Point","coordinates":[55.494862000000069,25.375092000000052]},"properties":{"FID":0,"name_ar":"حديقة  المويهات","name_en":"Mowaihat Park","Cat_ar":"الحدائق العامة","Cat_en":"Parks","x":25.375091999999999,"y":55.494861999999998}},{"type":"Feature","id":1,"geometry":{"type":"Point","coordinates":[55.504281000000049,25.375127000000077]},"properties":{"FID":1,"name_ar":"حديقة البراقة","name_en":"Al Barqah Park","Cat_ar":"الحدائق العامة","Cat_en":"Parks","x":25.375126999999999,"y":55.504280999999999}},{"type":"Feature","id":2,"geometry":{"type":"Point","coordinates":[55.581745000000069,25.376295000000027]},"properties":{"FID":2,"name_ar":"حديقة منتزة الحليو","name_en":"Helio Park","Cat_ar":"الحدائق العامة","Cat_en":"Parks","x":25.376294999999999,"y":55.581744999999998}},{"type":"Feature","id":3,"geometry":{"type":"Point","coordinates":[55.540545000000066,25.381464000000051]},"properties":{"FID":3,"name_ar":"حديقة حي المنتزي","name_en":"Al Muntazi Park","Cat_ar":"الحدائق العامة","Cat_en":"Parks","x":25.381464000000001,"y":55.540545000000002}},{"type":"Feature","id":4,"geometry":{"type":"Point","coordinates":[55.450380000000052,25.384164000000055]},"properties":{"FID":4,"name_ar":"حديقة ساحة النعيمية","name_en":"Al Nuaimia Square","Cat_ar":"الحدائق العامة","Cat_en":"Parks","x":25.384163999999998,"y":55.450380000000003}},{"type":"Feature","id":5,"geometry":{"type":"Point","coordinates":[55.520646000000056,25.386960000000045]},"properties":{"FID":5,"name_ar":"حديقة  الروضة","name_en":"Rawdha Park","Cat_ar":"الحدائق العامة","Cat_en":"Parks","x":25.386959999999998,"y":55.520645999999999}},{"type":"Feature","id":6,"geometry":{"type":"Point","coordinates":[55.524278000000038,25.390086000000053]},"properties":{"FID":6,"name_ar":"حديقة  المها","name_en":"Al Maha Park","Cat_ar":"الحدائق العامة","Cat_en":"Parks","x":25.390086,"y":55.524278000000002}},{"type":"Feature","id":7,"geometry":{"type":"Point","coordinates":[55.437322000000052,25.390761000000055]},"properties":{"FID":7,"name_ar":"حديقة العكاسة","name_en":"Al Akkasa Park","Cat_ar":"الحدائق العامة","Cat_en":"Parks","x":25.390761000000001,"y":55.437322000000002}},{"type":"Feature","id":8,"geometry":{"type":"Point","coordinates":[55.558293000000049,25.393616000000065]},"properties":{"FID":8,"name_ar":"حديقة المقيض","name_en":" Al Muqaidh Park","Cat_ar":"الحدائق العامة","Cat_en":"Parks","x":25.393616000000002,"y":55.558292999999999}},{"type":"Feature","id":9,"geometry":{"type":"Point","coordinates":[55.442412000000047,25.396949000000063]},"properties":{"FID":9,"name_ar":"حديقة الراشدية","name_en":"Rashidiya Ladies Park","Cat_ar":"الحدائق العامة","Cat_en":"Parks","x":25.396948999999999,"y":55.442411999999997}},{"type":"Feature","id":10,"geometry":{"type":"Point","coordinates":[55.517492000000061,25.39993000000004]},"properties":{"FID":10,"name_ar":"حديقة الزهرة","name_en":"Al Zahra Park","Cat_ar":"الحدائق العامة","Cat_en":"Parks","x":25.399930000000001,"y":55.517491999999997}},{"type":"Feature","id":11,"geometry":{"type":"Point","coordinates":[55.548204000000055,25.400177000000042]},"properties":{"FID":11,"name_ar":"حديقة  النيم","name_en":"Al Neem Park","Cat_ar":"الحدائق العامة","Cat_en":"Parks","x":25.400176999999999,"y":55.548203999999998}},{"type":"Feature","id":12,"geometry":{"type":"Point","coordinates":[55.525753000000066,25.401245000000074]},"properties":{"FID":12,"name_ar":"حديقة الرياضية","name_en":"Sports Park","Cat_ar":"الحدائق العامة","Cat_en":"Parks","x":25.401244999999999,"y":55.525753000000002}},{"type":"Feature","id":13,"geometry":{"type":"Point","coordinates":[55.613467000000071,25.401827000000026]},"properties":{"FID":13,"name_ar":"حديقة  دبدبا","name_en":"Dabdaba Park","Cat_ar":"الحدائق العامة","Cat_en":"Parks","x":25.401827000000001,"y":55.613467}},{"type":"Feature","id":14,"geometry":{"type":"Point","coordinates":[55.438573000000076,25.402260000000069]},"properties":{"FID":14,"name_ar":"حديقة قصر الزاهر","name_en":"Zaher Palace Park","Cat_ar":"الحدائق العامة","Cat_en":"Parks","x":25.402259999999998,"y":55.438572999999998}},{"type":"Feature","id":15,"geometry":{"type":"Point","coordinates":[55.55488100000008,25.40289400000006]},"properties":{"FID":15,"name_ar":"حديقة غابة الرقايب","name_en":"Ghabat Al Regayeb Park","Cat_ar":"الحدائق العامة","Cat_en":"Parks","x":25.402894,"y":55.554881000000002}},{"type":"Feature","id":16,"geometry":{"type":"Point","coordinates":[55.604767000000038,25.403693000000032]},"properties":{"FID":16,"name_ar":"حديقة  الشروق","name_en":"Al Shrooq Park","Cat_ar":"الحدائق العامة","Cat_en":"Parks","x":25.403693000000001,"y":55.604767000000002}},{"type":"Feature","id":17,"geometry":{"type":"Point","coordinates":[55.617350000000044,25.40456400000005]},"properties":{"FID":17,"name_ar":"حديقة ساحة الحليو","name_en":"Al Heliow Square Park","Cat_ar":"الحدائق العامة","Cat_en":"Parks","x":25.404564000000001,"y":55.617350000000002}},{"type":"Feature","id":18,"geometry":{"type":"Point","coordinates":[55.530461000000059,25.406221000000073]},"properties":{"FID":18,"name_ar":"حديقة  جيلة العباد","name_en":"Chailat Al Abad Park","Cat_ar":"الحدائق العامة","Cat_en":"Parks","x":25.406220999999999,"y":55.530461000000003}},{"type":"Feature","id":19,"geometry":{"type":"Point","coordinates":[55.463661000000059,25.40730300000007]},"properties":{"FID":19,"name_ar":"حديقة ساحة مشيرف","name_en":"Mushaurif Square Park","Cat_ar":"الحدائق العامة","Cat_en":"Parks","x":25.407302999999999,"y":55.463661000000002}},{"type":"Feature","id":20,"geometry":{"type":"Point","coordinates":[55.536916000000076,25.407486000000063]},"properties":{"FID":20,"name_ar":"حديقة غرفه عجمان","name_en":"Ajman Chamber Park","Cat_ar":"الحدائق العامة","Cat_en":"Parks","x":25.407485999999999,"y":55.536915999999998}},{"type":"Feature","id":21,"geometry":{"type":"Point","coordinates":[55.523865000000058,25.408352000000036]},"properties":{"FID":21,"name_ar":"حديقة  الحميدية 1","name_en":"Humaideya Park 1","Cat_ar":"الحدائق العامة","Cat_en":"Parks","x":25.408352000000001,"y":55.523865000000001}},{"type":"Feature","id":22,"geometry":{"type":"Point","coordinates":[55.53698200000008,25.410355000000038]},"properties":{"FID":22,"name_ar":"حديقة  الغاف","name_en":"Ghaf Park","Cat_ar":"الحدائق العامة","Cat_en":"Parks","x":25.410354999999999,"y":55.536982000000002}},{"type":"Feature","id":23,"geometry":{"type":"Point","coordinates":[55.498159000000044,25.412012000000061]},"properties":{"FID":23,"name_ar":"حديقة العلم","name_en":"Flag Park","Cat_ar":"الحدائق العامة","Cat_en":"Parks","x":25.412012000000001,"y":55.498159000000001}},{"type":"Feature","id":24,"geometry":{"type":"Point","coordinates":[55.532274000000029,25.413496000000066]},"properties":{"FID":24,"name_ar":"حديقة ساحة الرقايب","name_en":"Ragayeb Square Park","Cat_ar":"الحدائق العامة","Cat_en":"Parks","x":25.413495999999999,"y":55.532274000000001}},{"type":"Feature","id":25,"geometry":{"type":"Point","coordinates":[55.541640000000029,25.416263000000072]},"properties":{"FID":25,"name_ar":"حديقة الوصل","name_en":"Al Wasl Park","Cat_ar":"الحدائق العامة","Cat_en":"Parks","x":25.416263000000001,"y":55.541640000000001}},{"type":"Feature","id":26,"geometry":{"type":"Point","coordinates":[55.533028000000058,25.417362000000026]},"properties":{"FID":26,"name_ar":"حديقة ساحة الجرف","name_en":"Jurf Square Park","Cat_ar":"الحدائق العامة","Cat_en":"Parks","x":25.417362000000001,"y":55.533028000000002}},{"type":"Feature","id":27,"geometry":{"type":"Point","coordinates":[55.492468000000031,25.418094000000053]},"properties":{"FID":27,"name_ar":"حديقة  السعادة","name_en":"Al Saada Park","Cat_ar":"الحدائق العامة","Cat_en":"Parks","x":25.418094,"y":55.492468000000002}},{"type":"Feature","id":28,"geometry":{"type":"Point","coordinates":[55.48168000000004,25.418458000000044]},"properties":{"FID":28,"name_ar":"حديقة الصفيا","name_en":"Al Safia Park","Cat_ar":"الحدائق العامة","Cat_en":"Parks","x":25.418458000000001,"y":55.481679999999997}},{"type":"Feature","id":29,"geometry":{"type":"Point","coordinates":[55.518208000000072,25.42005400000005]},"properties":{"FID":29,"name_ar":"حديقة الحكمه للسيدات","name_en":"Al Hekmah Ladies Park","Cat_ar":"الحدائق العامة","Cat_en":"Parks","x":25.420054,"y":55.518208000000001}},{"type":"Feature","id":30,"geometry":{"type":"Point","coordinates":[55.471046000000058,25.422872000000041]},"properties":{"FID":30,"name_ar":"حديقة مشيرف للسيدات","name_en":"Mushairef Ladies Park","Cat_ar":"الحدائق العامة","Cat_en":"Parks","x":25.422872000000002,"y":55.471046000000001}},{"type":"Feature","id":31,"geometry":{"type":"Point","coordinates":[55.506241000000045,25.424930000000074]},"properties":{"FID":31,"name_ar":"حديقة الجرف","name_en":"Al Jurf Family Park","Cat_ar":"الحدائق العامة","Cat_en":"Parks","x":25.42493,"y":55.506241000000003}},{"type":"Feature","id":32,"geometry":{"type":"Point","coordinates":[55.516269000000079,25.425559000000078]},"properties":{"FID":32,"name_ar":"حديقة  المحبه","name_en":"Al Mahabbah Park","Cat_ar":"الحدائق العامة","Cat_en":"Parks","x":25.425559,"y":55.516269000000001}}]
}