{
  "type" : "FeatureCollection",
  "features" : [{"type":"Feature","id":1,"geometry":{"type":"Point","coordinates":[55.553187822314051,25.398101756482589]},"properties":{"OBJECTID":1,"Cat_ar":"ممشى جري ودراجات","Cat_en":"Running and Cycling Track","x":25.398471000000001,"y":55.550153000000002,"ORIG_FID":0,"name_ar":"ممشى البيت متوحد","name_en":"AlBayt Mitwahid Walkway\r\n"}},{"type":"Feature","id":2,"geometry":{"type":"Point","coordinates":[55.479747835084439,25.424428806909145]},"properties":{"OBJECTID":2,"Cat_ar":"ممشى جري ودراجات","Cat_en":"Running and Cycling Track","x":25.419383,"y":55.4863,"ORIG_FID":1,"name_ar":"ممشى القرم","name_en":"Qurum Walkway"}},{"type":"Feature","id":3,"geometry":{"type":"Point","coordinates":[55.48159734510034,25.418498226985328]},"properties":{"OBJECTID":3,"Cat_ar":"ممشى جري","Cat_en":"Running Track","x":25.416979999999999,"y":55.484332999999999,"ORIG_FID":2,"name_ar":"ممشى  حديقة الصفيا","name_en":"Al Safiya Park walkway"}},{"type":"Feature","id":4,"geometry":{"type":"Point","coordinates":[55.554896215841268,25.402873693887031]},"properties":{"OBJECTID":4,"Cat_ar":"ممشى جري","Cat_en":"Running Track","x":25.403479000000001,"y":55.552965,"ORIG_FID":3,"name_ar":"ممشى حديقة غابة الرقايب","name_en":"Ragayeb Park walkway"}},{"type":"Feature","id":5,"geometry":{"type":"Point","coordinates":[55.526230177083832,25.401157609324763]},"properties":{"OBJECTID":5,"Cat_ar":"ممشى جري","Cat_en":"Running Track","x":25.401388000000001,"y":55.525253999999997,"ORIG_FID":4,"name_ar":"ممشى الحديقة الرياضية","name_en":"Sports park walkway"}},{"type":"Feature","id":6,"geometry":{"type":"Point","coordinates":[55.478062570166429,25.419411188964627]},"properties":{"OBJECTID":6,"Cat_ar":"ممشى جري","Cat_en":"Running Track","x":25.419713000000002,"y":55.478124000000001,"ORIG_FID":5,"name_ar":"ممشى شارع الصفيا","name_en":"Al-Safiya walkway"}},{"type":"Feature","id":7,"geometry":{"type":"Point","coordinates":[55.49815807110101,25.41207785333825]},"properties":{"OBJECTID":7,"Cat_ar":"ممشى جري","Cat_en":"Running Track","x":25.412089000000002,"y":55.498170999999999,"ORIG_FID":6,"name_ar":"ممشى حديقة العلم  وجادة الع","name_en":"Al-Ez Yard walkway"}},{"type":"Feature","id":8,"geometry":{"type":"Point","coordinates":[55.446662017818703,25.421232094258009]},"properties":{"OBJECTID":8,"Cat_ar":"ممشى جري","Cat_en":"Running Track","x":25.419139000000001,"y":55.444291999999997,"ORIG_FID":7,"name_ar":"ممشى  المارينا","name_en":"Marina walkway"}},{"type":"Feature","id":9,"geometry":{"type":"Point","coordinates":[55.431452228854461,25.407527853595777]},"properties":{"OBJECTID":9,"Cat_ar":"ممشى جري ودراجات","Cat_en":"Running and Cycling Track","x":25.407527000000002,"y":55.430813999999998,"ORIG_FID":8,"name_ar":"ممشى الكورنيش","name_en":"Corniche walkway"}},{"type":"Feature","id":10,"geometry":{"type":"Point","coordinates":[55.536895179659744,25.407500652531557]},"properties":{"OBJECTID":10,"Cat_ar":"ممشى جري","Cat_en":"Running Track","x":25.408338000000001,"y":55.537185999999998,"ORIG_FID":9,"name_ar":"ممشى حديقة غرفه عجمان","name_en":"Ajman Chamber Park walkway"}},{"type":"Feature","id":11,"geometry":{"type":"Point","coordinates":[55.492402469621418,25.418030266378317]},"properties":{"OBJECTID":11,"Cat_ar":"ممشى جري","Cat_en":"Running Track","x":25.417317000000001,"y":55.491698,"ORIG_FID":10,"name_ar":"ممشى حديقة السعادة","name_en":"Al Saada Park walkway"}},{"type":"Feature","id":12,"geometry":{"type":"Point","coordinates":[55.506241559761243,25.424929735413638]},"properties":{"OBJECTID":12,"Cat_ar":"ممشى جري","Cat_en":"Running Track","x":25.425314,"y":55.505341000000001,"ORIG_FID":11,"name_ar":"ممشى حديقة الجرف","name_en":"Al Jurf Family Park walkway"}}]
}