{
  "type" : "FeatureCollection",
  "features" : [{"type":"Feature","id":0,"geometry":{"type":"Point","coordinates":[55.507450219203875,25.414786568354312]},"properties":{"FID":0,"OBJECTID":1,"name_ar":"مدرسة حميد بن عبد العزيز","name_en":"Humaid Bin Abdulaziz School","Cat_ar":"مدارس","Cat_en":"Schools","x":25.4147865684,"y":55.507450219200003}},{"type":"Feature","id":1,"geometry":{"type":"Point","coordinates":[55.487234402873142,25.396281099377717]},"properties":{"FID":1,"OBJECTID":2,"name_ar":"مدرسة أسماء بنت عميس","name_en":"Asma Bint Omais School","Cat_ar":"مدارس","Cat_en":"Schools","x":25.396281099399999,"y":55.4872344029}},{"type":"Feature","id":2,"geometry":{"type":"Point","coordinates":[55.480996964716297,25.415792326951696]},"properties":{"FID":2,"OBJECTID":3,"name_ar":"مدرسة ابن الهيثم الحلقة 2","name_en":"Ibn Al Haitham School C2","Cat_ar":"مدارس","Cat_en":"Schools","x":25.415792326999998,"y":55.480996964699997}},{"type":"Feature","id":3,"geometry":{"type":"Point","coordinates":[55.478866515142876,25.416696178850493]},"properties":{"FID":3,"OBJECTID":4,"name_ar":"مدرسة الزوراء 2","name_en":"Al Zorah School 2","Cat_ar":"مدارس","Cat_en":"Schools","x":25.416696178900001,"y":55.478866515100002}},{"type":"Feature","id":4,"geometry":{"type":"Point","coordinates":[55.473322072066715,25.400997674167648]},"properties":{"FID":4,"OBJECTID":6,"name_ar":"مدرسة مشيرف","name_en":"Mushairef School","Cat_ar":"مدارس","Cat_en":"Schools","x":25.400997674199999,"y":55.473322072099997}},{"type":"Feature","id":5,"geometry":{"type":"Point","coordinates":[55.546328413997536,25.408480694767995]},"properties":{"FID":5,"OBJECTID":7,"name_ar":"مدرسة ابن تيمية","name_en":"Ibn Taymiyah School","Cat_ar":"مدارس","Cat_en":"Schools","x":25.408480694800001,"y":55.546328414000001}},{"type":"Feature","id":6,"geometry":{"type":"Point","coordinates":[55.507151791313781,25.399786967370353]},"properties":{"FID":6,"OBJECTID":8,"name_ar":"مدرسة الراشدية","name_en":"Al Rashidiya School","Cat_ar":"مدارس","Cat_en":"Schools","x":25.399786967400001,"y":55.507151791299997}},{"type":"Feature","id":7,"geometry":{"type":"Point","coordinates":[55.510435392089747,25.425397349202285]},"properties":{"FID":7,"OBJECTID":10,"name_ar":"مدرسة عمر بن عبد العزيز","name_en":"Omar Bin Abdulaziz School","Cat_ar":"مدارس","Cat_en":"Schools","x":25.425397349200001,"y":55.5104353921}},{"type":"Feature","id":8,"geometry":{"type":"Point","coordinates":[55.486830372647908,25.397834635328049]},"properties":{"FID":8,"OBJECTID":12,"name_ar":"مدارس التسامح","name_en":"Al Tasamuh Schools","Cat_ar":"مدارس","Cat_en":"Schools","x":25.397834635300001,"y":55.486830372599997}},{"type":"Feature","id":9,"geometry":{"type":"Point","coordinates":[55.486503262532608,25.399102584968571]},"properties":{"FID":9,"OBJECTID":13,"name_ar":"مدرسة النعيمية","name_en":"Al Nuaimia School","Cat_ar":"مدارس","Cat_en":"Schools","x":25.399102585000001,"y":55.486503262500001}},{"type":"Feature","id":10,"geometry":{"type":"Point","coordinates":[55.484698884482462,25.397655879399881]},"properties":{"FID":10,"OBJECTID":14,"name_ar":"مدرسة عجمان الثانوية","name_en":"Ajman Secondary School","Cat_ar":"مدارس","Cat_en":"Schools","x":25.397655879399998,"y":55.484698884499998}},{"type":"Feature","id":11,"geometry":{"type":"Point","coordinates":[55.484954367674469,25.396627823592304]},"properties":{"FID":11,"OBJECTID":15,"name_ar":"مدرسة خديجة","name_en":"Khadija School","Cat_ar":"مدارس","Cat_en":"Schools","x":25.396627823599999,"y":55.484954367699999}},{"type":"Feature","id":12,"geometry":{"type":"Point","coordinates":[55.485251247667925,25.395591110723824]},"properties":{"FID":12,"OBJECTID":16,"name_ar":"مدرسة أم عمار 2","name_en":"Um Ammar School 2","Cat_ar":"مدارس","Cat_en":"Schools","x":25.3955911107,"y":55.485251247699999}},{"type":"Feature","id":13,"geometry":{"type":"Point","coordinates":[55.469470240684984,25.412443457893104]},"properties":{"FID":13,"OBJECTID":17,"name_ar":"مدرسة الزوراء 1","name_en":"Al Zorah School 1","Cat_ar":"مدارس","Cat_en":"Schools","x":25.4124434579,"y":55.469470240699998}},{"type":"Feature","id":14,"geometry":{"type":"Point","coordinates":[55.497599608962147,25.404943452130425]},"properties":{"FID":14,"OBJECTID":18,"name_ar":"مدرسة شيخة بنت سعيد","name_en":"Shaikha Bint Saeed School","Cat_ar":"مدارس","Cat_en":"Schools","x":25.404943452099999,"y":55.497599608999998}},{"type":"Feature","id":15,"geometry":{"type":"Point","coordinates":[55.499115708785318,25.407798220913403]},"properties":{"FID":15,"OBJECTID":19,"name_ar":"مدرسة الجرف","name_en":"Al Jurf School","Cat_ar":"مدارس","Cat_en":"Schools","x":25.407798220899998,"y":55.499115708799998}},{"type":"Feature","id":16,"geometry":{"type":"Point","coordinates":[55.493308227987782,25.404666873653369]},"properties":{"FID":16,"OBJECTID":20,"name_ar":"المعهد العلمي","name_en":"Al Ma'ahad Al Elmi (Scientific Institute)","Cat_ar":"مدارس","Cat_en":"Schools","x":25.404666873699998,"y":55.493308227999997}},{"type":"Feature","id":17,"geometry":{"type":"Point","coordinates":[55.488773023238807,25.398473755797866]},"properties":{"FID":17,"OBJECTID":21,"name_ar":"شيخة بنت سعيد","name_en":"Shaikha Bint Saeed School","Cat_ar":"مدارس","Cat_en":"Schools","x":25.398473755800001,"y":55.488773023199997}},{"type":"Feature","id":18,"geometry":{"type":"Point","coordinates":[55.48902920003443,25.397485751683554]},"properties":{"FID":18,"OBJECTID":22,"name_ar":"مدرسة أم عمارة ح1","name_en":"Um Amarah School C1","Cat_ar":"مدارس","Cat_en":"Schools","x":25.3974857517,"y":55.489029199999997}},{"type":"Feature","id":19,"geometry":{"type":"Point","coordinates":[55.476766033420489,25.417627538442058]},"properties":{"FID":19,"OBJECTID":23,"name_ar":"مدرسة الزوراء 3 ثانوي","name_en":"Al Zorah School 3 Secondary","Cat_ar":"مدارس","Cat_en":"Schools","x":25.417627538400001,"y":55.476766033399997}},{"type":"Feature","id":20,"geometry":{"type":"Point","coordinates":[55.534462859887917,25.380625111687397]},"properties":{"FID":20,"OBJECTID":25,"name_ar":"مجمع زايد التعليمي","name_en":"Zayed Educational Complex","Cat_ar":"مدارس","Cat_en":"Schools","x":25.380625111699999,"y":55.534462859900003}},{"type":"Feature","id":21,"geometry":{"type":"Point","coordinates":[55.511098623558738,25.426883115485719]},"properties":{"FID":21,"OBJECTID":26,"name_ar":"مدرسة راشد بن حميد","name_en":"Rashid Bin Humaid School","Cat_ar":"مدارس","Cat_en":"Schools","x":25.426883115500001,"y":55.511098623599999}},{"type":"Feature","id":22,"geometry":{"type":"Point","coordinates":[55.548120040028621,25.408993596117249]},"properties":{"FID":22,"OBJECTID":27,"name_ar":"مجمع زايد التعليمي/ الرقايب","name_en":"Zayed Educational Complex","Cat_ar":"مدارس","Cat_en":"Schools","x":25.4089935961,"y":55.548120040000001}},{"type":"Feature","id":23,"geometry":{"type":"Point","coordinates":[55.503753499589834,25.364231999677859]},"properties":{"FID":23,"OBJECTID":28,"name_ar":"مدرسة سيتي المدرسية","name_en":"City Private School","Cat_ar":"مدارس","Cat_en":"Schools","x":25.364231999699999,"y":55.503753499600002}},{"type":"Feature","id":24,"geometry":{"type":"Point","coordinates":[55.5072364000359,25.36562139972764]},"properties":{"FID":24,"OBJECTID":29,"name_ar":"مدرسة سيتي","name_en":"City School","Cat_ar":"مدارس","Cat_en":"Schools","x":25.3656213997,"y":55.507236399999996}},{"type":"Feature","id":25,"geometry":{"type":"Point","coordinates":[55.502934000306617,25.371506399814134]},"properties":{"FID":25,"OBJECTID":30,"name_ar":"مدرسة أكاديمية عجمان","name_en":"Ajman Academy School","Cat_ar":"مدارس","Cat_en":"Schools","x":25.371506399800001,"y":55.502934000300002}},{"type":"Feature","id":26,"geometry":{"type":"Point","coordinates":[55.506161800458734,25.369935900104789]},"properties":{"FID":26,"OBJECTID":31,"name_ar":"مدرسة دلهي الخاصة","name_en":"Delhi Private School","Cat_ar":"مدارس","Cat_en":"Schools","x":25.3699359001,"y":55.506161800500003}},{"type":"Feature","id":27,"geometry":{"type":"Point","coordinates":[55.44600239994115,25.406380800075116]},"properties":{"FID":27,"OBJECTID":32,"name_ar":"أكاديمية بلومنج","name_en":"Blooming Academy","Cat_ar":"مدارس","Cat_en":"Schools","x":25.406380800099999,"y":55.446002399900003}},{"type":"Feature","id":28,"geometry":{"type":"Point","coordinates":[55.503320999832589,25.403274899852875]},"properties":{"FID":28,"OBJECTID":33,"name_ar":"مدرسة وودلم الأمريكية الخاصة","name_en":"Woodlem American Private School","Cat_ar":"مدارس","Cat_en":"Schools","x":25.403274899900001,"y":55.503320999800003}},{"type":"Feature","id":29,"geometry":{"type":"Point","coordinates":[55.5030414000516,25.417209999859288]},"properties":{"FID":29,"OBJECTID":35,"name_ar":"مدرسة عجمان الأمريكية الخاصة","name_en":"Ajman American Private School","Cat_ar":"مدارس","Cat_en":"Schools","x":25.417209999899999,"y":55.503041400100003}},{"type":"Feature","id":30,"geometry":{"type":"Point","coordinates":[55.492664899587773,25.400589000386386]},"properties":{"FID":30,"OBJECTID":37,"name_ar":"مدرسة عجمان الكورية","name_en":"Ajman Korean School","Cat_ar":"مدارس","Cat_en":"Schools","x":25.4005890004,"y":55.492664899600001}},{"type":"Feature","id":31,"geometry":{"type":"Point","coordinates":[55.488109999587259,25.399844300168304]},"properties":{"FID":31,"OBJECTID":38,"name_ar":"مدرسة الأمير","name_en":"Al Ameer School","Cat_ar":"مدارس","Cat_en":"Schools","x":25.399844300200002,"y":55.488109999599999}},{"type":"Feature","id":32,"geometry":{"type":"Point","coordinates":[55.443005189193237,25.389155141218684]},"properties":{"FID":32,"OBJECTID":39,"name_ar":"المدرسة البريطانية الدولية","name_en":"British International School","Cat_ar":"مدارس","Cat_en":"Schools","x":25.3891551412,"y":55.443005189200001}},{"type":"Feature","id":33,"geometry":{"type":"Point","coordinates":[55.504033599904133,25.368316399702199]},"properties":{"FID":33,"OBJECTID":40,"name_ar":"مدرسة الشعاع","name_en":"Al Shuaa School","Cat_ar":"مدارس","Cat_en":"Schools","x":25.368316399699999,"y":55.504033599899998}},{"type":"Feature","id":34,"geometry":{"type":"Point","coordinates":[55.502641299533209,25.367059899812077]},"properties":{"FID":34,"OBJECTID":41,"name_ar":"مدرسة الحكمة الخاصة","name_en":"Al Hikmah Private School","Cat_ar":"مدارس","Cat_en":"Schools","x":25.367059899800001,"y":55.502641299499999}},{"type":"Feature","id":35,"geometry":{"type":"Point","coordinates":[55.499752699843235,25.367910900078826]},"properties":{"FID":35,"OBJECTID":42,"name_ar":"مدرسة هابيتات الخاصة","name_en":"Habitat Private School","Cat_ar":"مدارس","Cat_en":"Schools","x":25.3679109001,"y":55.499752699799998}},{"type":"Feature","id":36,"geometry":{"type":"Point","coordinates":[55.461180399831512,25.387194400158961]},"properties":{"FID":36,"OBJECTID":43,"name_ar":"مدرسة الحكمة (فرع)","name_en":"Al Hikmah School","Cat_ar":"مدارس","Cat_en":"Schools","x":25.387194400199999,"y":55.4611803998}},{"type":"Feature","id":37,"geometry":{"type":"Point","coordinates":[55.492255478364839,25.402598739913429]},"properties":{"FID":37,"OBJECTID":44,"name_ar":"مدرسة الكويتي","name_en":"Al Kuwaiti School","Cat_ar":"مدارس","Cat_en":"Schools","x":25.4025987399,"y":55.492255478399997}},{"type":"Feature","id":38,"geometry":{"type":"Point","coordinates":[55.496444200105095,25.400418800089099]},"properties":{"FID":38,"OBJECTID":45,"name_ar":"المدرسة الهندية العالمية","name_en":"International Indian School","Cat_ar":"مدارس","Cat_en":"Schools","x":25.400418800099999,"y":55.496444200100001}},{"type":"Feature","id":39,"geometry":{"type":"Point","coordinates":[55.494227099935152,25.398403900153131]},"properties":{"FID":39,"OBJECTID":46,"name_ar":"مدرسة برايت الدولية","name_en":"Bright International School","Cat_ar":"مدارس","Cat_en":"Schools","x":25.398403900200002,"y":55.494227099900002}},{"type":"Feature","id":40,"geometry":{"type":"Point","coordinates":[55.494074300425844,25.399196300378314]},"properties":{"FID":40,"OBJECTID":47,"name_ar":"مدرسة الباكستانية الإسلامية","name_en":"Pakistan Islamia School","Cat_ar":"مدارس","Cat_en":"Schools","x":25.3991963004,"y":55.494074300400001}},{"type":"Feature","id":41,"geometry":{"type":"Point","coordinates":[55.492393206456555,25.399398418294627]},"properties":{"FID":41,"OBJECTID":48,"name_ar":"مدرسة كراون أمريكان الخاصة","name_en":"Crown American Private school","Cat_ar":"مدارس","Cat_en":"Schools","x":25.399398418299999,"y":55.492393206499997}},{"type":"Feature","id":42,"geometry":{"type":"Point","coordinates":[55.493633200306334,25.400003899740735]},"properties":{"FID":42,"OBJECTID":49,"name_ar":"مدرسة أبي عبيدة","name_en":"Abi Obaida School","Cat_ar":"مدارس","Cat_en":"Schools","x":25.4000038997,"y":55.493633200300003}},{"type":"Feature","id":43,"geometry":{"type":"Point","coordinates":[55.491670050319229,25.399506054886555]},"properties":{"FID":43,"OBJECTID":50,"name_ar":"المدرسة الهندية العالمية","name_en":"Global Indian School","Cat_ar":"مدارس","Cat_en":"Schools","x":25.399506054900002,"y":55.491670050300002}},{"type":"Feature","id":44,"geometry":{"type":"Point","coordinates":[55.490543212345514,25.398572783311025]},"properties":{"FID":44,"OBJECTID":51,"name_ar":"مدرسة وايز الدولية","name_en":"Wise International School","Cat_ar":"مدارس","Cat_en":"Schools","x":25.398572783300001,"y":55.490543212299997}},{"type":"Feature","id":45,"geometry":{"type":"Point","coordinates":[55.490654499546316,25.397759399602659]},"properties":{"FID":45,"OBJECTID":52,"name_ar":"مدرسة منار الإيمان","name_en":"Manar Al Iman School","Cat_ar":"مدارس","Cat_en":"Schools","x":25.397759399600002,"y":55.490654499500003}},{"type":"Feature","id":46,"geometry":{"type":"Point","coordinates":[55.498841699986457,25.404031699913379]},"properties":{"FID":46,"OBJECTID":53,"name_ar":"مدرسة الأقصى الخاصة","name_en":"Al Aqsa Private School","Cat_ar":"مدارس","Cat_en":"Schools","x":25.404031699899999,"y":55.4988417}},{"type":"Feature","id":47,"geometry":{"type":"Point","coordinates":[55.52931080015999,25.415770599997717]},"properties":{"FID":47,"OBJECTID":56,"name_ar":"مدرسة متروبوليتان الدولية الهندية","name_en":"Metropolitan International Indian School","Cat_ar":"مدارس","Cat_en":"Schools","x":25.415770599999998,"y":55.529310800200001}},{"type":"Feature","id":48,"geometry":{"type":"Point","coordinates":[55.554322499716456,25.390533100095173]},"properties":{"FID":48,"OBJECTID":69,"name_ar":"مدرسة هامبتون","name_en":"Hampton School","Cat_ar":"مدارس","Cat_en":"Schools","x":25.390533100100001,"y":55.5543224997}},{"type":"Feature","id":49,"geometry":{"type":"Point","coordinates":[55.525665494478382,25.396324021579762]},"properties":{"FID":49,"OBJECTID":70,"name_ar":"المدرسة الأهلية الخيرية الخاصة / فرع البنين عجمان","name_en":"National Charity Private School Boys Branch","Cat_ar":"مدارس","Cat_en":"Schools","x":25.396324021600002,"y":55.525665494499997}},{"type":"Feature","id":50,"geometry":{"type":"Point","coordinates":[55.51964659954259,25.421908700353548]},"properties":{"FID":50,"OBJECTID":71,"name_ar":"مدرسة وودلم البريطانية – عجمان","name_en":"British Woodlem School","Cat_ar":"مدارس","Cat_en":"Schools","x":25.4219087004,"y":55.5196465995}},{"type":"Feature","id":51,"geometry":{"type":"Point","coordinates":[55.528466499511083,25.414550799727298]},"properties":{"FID":51,"OBJECTID":73,"name_ar":"مدرسة كراون الخاصة – المنهاج البريطاني","name_en":"Crown Private School Ajman - British Curriculum Ajman","Cat_ar":"مدارس","Cat_en":"Schools","x":25.414550799699999,"y":55.528466499499999}},{"type":"Feature","id":52,"geometry":{"type":"Point","coordinates":[55.522740499673461,25.39937890023149]},"properties":{"FID":52,"OBJECTID":75,"name_ar":"الأكاديمية الأمريكية","name_en":"American Academy","Cat_ar":"مدارس","Cat_en":"Schools","x":25.399378900199999,"y":55.522740499699999}},{"type":"Feature","id":53,"geometry":{"type":"Point","coordinates":[55.549670600011304,25.423382100275944]},"properties":{"FID":53,"OBJECTID":76,"name_ar":"مدرسة وودليم بارك عجمان","name_en":"Woodlem Park School Ajman","Cat_ar":"مدارس","Cat_en":"Schools","x":25.4233821003,"y":55.549670599999999}},{"type":"Feature","id":54,"geometry":{"type":"Point","coordinates":[55.519916900316744,25.403249499767391]},"properties":{"FID":54,"OBJECTID":34,"name_ar":"مدرسة الأكاديمية الملكية الخاصة","name_en":"The Royal Academy Private School","Cat_ar":"مدارس","Cat_en":"Schools","x":25.403249499800001,"y":55.519916900299997}},{"type":"Feature","id":55,"geometry":{"type":"Point","coordinates":[55.528771499775324,25.384318099837486]},"properties":{"FID":55,"OBJECTID":74,"name_ar":"مدرسة وودلم بارك – الحميدية","name_en":"Woodlem Park School Hamidiya","Cat_ar":"مدارس","Cat_en":"Schools","x":25.384318099800002,"y":55.528771499800001}}]
}