{
  "type" : "FeatureCollection",
  "features" : [{"type":"Feature","id":0,"geometry":{"type":"Point","coordinates":[55.479475000000036,25.399798000000033]},"properties":{"FID":0,"name_ar":"عجمان سيتي سنتر","name_en":"Ajman City Center","Cat_ar":"مجمع تجاري","Cat_en":"Shopping Center","x":25.399798000000001,"y":55.479475000000001}},{"type":"Feature","id":1,"geometry":{"type":"Point","coordinates":[55.49568400000004,25.414730000000077]},"properties":{"FID":1,"name_ar":"جراند سينترال مول","name_en":"Grand Central Mall","Cat_ar":"مجمع تجاري","Cat_en":"Shopping Center","x":25.414729999999999,"y":55.495683999999997}},{"type":"Feature","id":2,"geometry":{"type":"Point","coordinates":[55.526341000000059,25.427055000000053]},"properties":{"FID":2,"name_ar":"السوق الصيني","name_en":"China Mall","Cat_ar":"مجمع تجاري","Cat_en":"Shopping Center","x":25.427054999999999,"y":55.526341000000002}},{"type":"Feature","id":3,"geometry":{"type":"Point","coordinates":[55.501239000000055,25.425352000000032]},"properties":{"FID":3,"name_ar":"جمعية أسواق عجمان التعاونية-الجرف","name_en":"Ajman Markets CooperativeSociety","Cat_ar":"مجمع تجاري","Cat_en":"Shopping Center","x":25.425352,"y":55.501238999999998}},{"type":"Feature","id":4,"geometry":{"type":"Point","coordinates":[55.502819000000045,25.399267000000066]},"properties":{"FID":4,"name_ar":"سفير مول-الحميدية","name_en":"Safeer Mall Al Hamidia","Cat_ar":"مجمع تجاري","Cat_en":"Shopping Center","x":25.399266999999998,"y":55.502819000000002}},{"type":"Feature","id":5,"geometry":{"type":"Point","coordinates":[55.471873000000073,25.389620000000036]},"properties":{"FID":5,"name_ar":"جاليريا مول","name_en":"Galleria Mall","Cat_ar":"مجمع تجاري","Cat_en":"Shopping Center","x":25.389620000000001,"y":55.471873000000002}},{"type":"Feature","id":6,"geometry":{"type":"Point","coordinates":[55.444112000000075,25.406925000000058]},"properties":{"FID":6,"name_ar":"مركز اللولو للتسوق","name_en":"Lulu HyperMarket","Cat_ar":"مجمع تجاري","Cat_en":"Shopping Center","x":25.406925000000001,"y":55.444111999999997}},{"type":"Feature","id":7,"geometry":{"type":"Point","coordinates":[55.454526000000044,25.393993000000023]},"properties":{"FID":7,"name_ar":"جمعية أسواق عجمان التعاونية-الراشد","name_en":"Ajman Markets CooperativeSociety-Al Rashedyia","Cat_ar":"مجمع تجاري","Cat_en":"Shopping Center","x":25.393992999999998,"y":55.454526000000001}},{"type":"Feature","id":8,"geometry":{"type":"Point","coordinates":[55.433565000000044,25.400194000000056]},"properties":{"FID":8,"name_ar":"جمعية أسواق عجمان التعاونية-الرميل","name_en":"Ajman Markets CooperativeSociety-Al Rumaila","Cat_ar":"مجمع تجاري","Cat_en":"Shopping Center","x":25.400193999999999,"y":55.433565000000002}},{"type":"Feature","id":9,"geometry":{"type":"Point","coordinates":[55.455571000000077,25.393136000000027]},"properties":{"FID":9,"name_ar":"سفير مول -مشرف التجارية","name_en":"Safeer Mall-Musherif Commercial","Cat_ar":"مجمع تجاري","Cat_en":"Shopping Center","x":25.393135999999998,"y":55.455570999999999}},{"type":"Feature","id":10,"geometry":{"type":"Point","coordinates":[55.444916000000035,25.390434000000027]},"properties":{"FID":10,"name_ar":"سفير مول-النعيمية","name_en":"Safeer Mall-Nuaimyia","Cat_ar":"مجمع تجاري","Cat_en":"Shopping Center","x":25.390433999999999,"y":55.444915999999999}},{"type":"Feature","id":11,"geometry":{"type":"Point","coordinates":[55.463928000000067,25.383319000000029]},"properties":{"FID":11,"name_ar":"مركز حمدان","name_en":"Hamdan center","Cat_ar":"مجمع تجاري","Cat_en":"Shopping Center","x":25.383319,"y":55.463928000000003}},{"type":"Feature","id":12,"geometry":{"type":"Point","coordinates":[55.510514000000057,25.365996000000052]},"properties":{"FID":12,"name_ar":"سيتي لايف التلة مول","name_en":"City Life Al Tallah Mall","Cat_ar":"مجمع تجاري","Cat_en":"Shopping Center","x":25.365995999999999,"y":55.510514000000001}},{"type":"Feature","id":13,"geometry":{"type":"Point","coordinates":[55.506992000000082,25.433855000000051]},"properties":{"FID":13,"name_ar":"مهرجان عجمان","name_en":"Ajman Festival","Cat_ar":"مجمع تجاري","Cat_en":"Shopping Center","x":25.433855000000001,"y":55.506991999999997}},{"type":"Feature","id":14,"geometry":{"type":"Point","coordinates":[55.482817000000068,25.403211000000056]},"properties":{"FID":14,"name_ar":"عجمان بوليفارد","name_en":"boulivard Ajman","Cat_ar":"مجمع تجاري","Cat_en":"Shopping Center","x":25.403210999999999,"y":55.482816999999997}},{"type":"Feature","id":15,"geometry":{"type":"Point","coordinates":[55.443509000000063,25.412447000000043]},"properties":{"FID":15,"name_ar":"سوق الذهب الجديد","name_en":"Gold market new","Cat_ar":"مجمع تجاري","Cat_en":"Shopping Center","x":25.412447,"y":55.443508999999999}},{"type":"Feature","id":16,"geometry":{"type":"Point","coordinates":[55.443512000000055,25.412875000000042]},"properties":{"FID":16,"name_ar":"سوق الذهب القديم","name_en":"Gold market old","Cat_ar":"مجمع تجاري","Cat_en":"Shopping Center","x":25.412875,"y":55.443511999999998}},{"type":"Feature","id":17,"geometry":{"type":"Point","coordinates":[55.443544000000031,25.413895000000025]},"properties":{"FID":17,"name_ar":"سوق صالح","name_en":"Saleh Souq","Cat_ar":"مجمع تجاري","Cat_en":"Shopping Center","x":25.413895,"y":55.443544000000003}},{"type":"Feature","id":18,"geometry":{"type":"Point","coordinates":[55.475524000000064,25.410701000000074]},"properties":{"FID":18,"name_ar":"سوق مشيرف","name_en":"Musharif Souq","Cat_ar":"مجمع تجاري","Cat_en":"Shopping Center","x":25.410701,"y":55.475524}}]
}