{
  "type" : "FeatureCollection",
  "features" : [{"type":"Feature","id":0,"geometry":{"type":"Point","coordinates":[55.475723000000073,25.420465000000036]},"properties":{"FID":0,"name_ar":"مركز عجمان للشباب","name_en":"Ajman Youth Center","Cat_ar":"أندية رياضية أو ثقافية","Cat_en":"Clubs","x":25.420465,"y":55.475723000000002}},{"type":"Feature","id":1,"geometry":{"type":"Point","coordinates":[55.469442000000072,25.415411000000063]},"properties":{"FID":1,"name_ar":"نادي عجمان للشطرنج","name_en":"Ajman Chess Club","Cat_ar":"أندية رياضية أو ثقافية","Cat_en":"Clubs","x":25.415410999999999,"y":55.469442000000001}},{"type":"Feature","id":2,"geometry":{"type":"Point","coordinates":[55.47472300000004,25.420545000000061]},"properties":{"FID":2,"name_ar":"مركز كواترو الرياضي","name_en":"Quattro Sports Centre","Cat_ar":"أندية رياضية أو ثقافية","Cat_en":"Clubs","x":25.420545000000001,"y":55.474722999999997}},{"type":"Feature","id":3,"geometry":{"type":"Point","coordinates":[55.533440000000041,25.364820000000066]},"properties":{"FID":3,"name_ar":"مضمار التله لسباق الهجن","name_en":"Talla Camel Race Track","Cat_ar":"أندية رياضية أو ثقافية","Cat_en":"Clubs","x":25.364820000000002,"y":55.533439999999999}},{"type":"Feature","id":4,"geometry":{"type":"Point","coordinates":[55.48645700000003,25.402974000000029]},"properties":{"FID":4,"name_ar":"نادي الفروسية","name_en":"Ajman Stud Farm","Cat_ar":"أندية رياضية أو ثقافية","Cat_en":"Clubs","x":25.402974,"y":55.486457000000001}},{"type":"Feature","id":5,"geometry":{"type":"Point","coordinates":[55.470635000000073,25.414573000000075]},"properties":{"FID":5,"name_ar":"جمعية عجمان للتنمية الاجتم","name_en":"Ajman Society of Social & Cultural Development","Cat_ar":"أندية رياضية أو ثقافية","Cat_en":"Clubs","x":25.414573000000001,"y":55.470635000000001}},{"type":"Feature","id":6,"geometry":{"type":"Point","coordinates":[55.450708000000077,25.391618000000051]},"properties":{"FID":6,"name_ar":"نادي عجمان الثقافي الرياضي","name_en":"Ajman Culture & Sport Club","Cat_ar":"أندية رياضية أو ثقافية","Cat_en":"Clubs","x":25.391618000000001,"y":55.450707999999999}},{"type":"Feature","id":7,"geometry":{"type":"Point","coordinates":[55.554351000000054,25.417879000000028]},"properties":{"FID":7,"name_ar":"نادي الشرطة للرياضة والرماية","name_en":"Ajman Police Sports and Shooting Club","Cat_ar":"أندية رياضية أو ثقافية","Cat_en":"Clubs","x":25.417878999999999,"y":55.554350999999997}}]
}